{
  "type": "FeatureCollection",
  "features": [
    {
      "type": "Feature",
      "properties": {
        "norad_id": 39617,
        "name": "ASTRA 5B (EGNOS/PRN 123)",
        "group": "gnss",
        "lat": -0.06852516145748624,
        "lon": -88.93523431157963,
        "alt_km": 35767.92678221907,
        "timestamp": "2025-12-06T11:28:11.305780+00:00",
        "meta_object_name": "ASTRA 5B (EGNOS/PRN 123)",
        "meta_object_id": "2014-011B",
        "meta_epoch": "2025-12-05T22:21:59.439744",
        "meta_mean_motion": 1.00268461,
        "meta_eccentricity": 0.00045909,
        "meta_inclination": 0.0505,
        "meta_ra_of_asc_node": 20.3115,
        "meta_arg_of_pericenter": 238.7797,
        "meta_mean_anomaly": 174.8932,
        "meta_ephemeris_type": 0,
        "meta_classification_type": "U",
        "meta_norad_cat_id": 39617,
        "meta_element_set_no": 999,
        "meta_rev_at_epoch": 4273,
        "meta_bstar": 0,
        "meta_mean_motion_dot": 1.46e-06,
        "meta_mean_motion_ddot": 0,
        "tle_line1": "1 39617U 14011B   25339.93193796  .00000146  00000+0  00000+0 0  9991",
        "tle_line2": "2 39617   0.0505  20.3115 0004590 238.7797 174.8932  1.00268461 42739"
      },
      "geometry": {
        "type": "Point",
        "coordinates": [
          -88.93523431157963,
          -0.06852516145748624
        ]
      }
    },
    {
      "type": "Feature",
      "properties": {
        "norad_id": 39620,
        "name": "COSMOS 2492 (754)",
        "group": "gnss",
        "lat": 3.798936381921731,
        "lon": -37.78688046629139,
        "alt_km": 19108.218504976183,
        "timestamp": "2025-12-06T11:28:11.305792+00:00",
        "meta_object_name": "COSMOS 2492 (754)",
        "meta_object_id": "2014-012A",
        "meta_epoch": "2025-12-02T17:14:30.403680",
        "meta_mean_motion": 2.13103072,
        "meta_eccentricity": 0.00141646,
        "meta_inclination": 65.4134,
        "meta_ra_of_asc_node": 320.6107,
        "meta_arg_of_pericenter": 311.0276,
        "meta_mean_anomaly": 48.8557,
        "meta_ephemeris_type": 0,
        "meta_classification_type": "U",
        "meta_norad_cat_id": 39620,
        "meta_element_set_no": 999,
        "meta_rev_at_epoch": 9105,
        "meta_bstar": 0,
        "meta_mean_motion_dot": -3.6e-07,
        "meta_mean_motion_ddot": 0,
        "tle_line1": "1 39620U 14012A   25336.71840745 -.00000036  00000+0  00000+0 0  9991",
        "tle_line2": "2 39620  65.4134 320.6107 0014164 311.0276  48.8557  2.13103072 91051"
      },
      "geometry": {
        "type": "Point",
        "coordinates": [
          -37.78688046629139,
          3.798936381921731
        ]
      }
    },
    {
      "type": "Feature",
      "properties": {
        "norad_id": 39635,
        "name": "IRNSS-1B",
        "group": "gnss",
        "lat": 24.350848672876644,
        "lon": -61.0577023006087,
        "alt_km": 35824.52044500647,
        "timestamp": "2025-12-06T11:28:11.305804+00:00",
        "meta_object_name": "IRNSS-1B",
        "meta_object_id": "2014-017A",
        "meta_epoch": "2025-12-04T19:28:38.496288",
        "meta_mean_motion": 1.00275997,
        "meta_eccentricity": 0.0017633,
        "meta_inclination": 28.8387,
        "meta_ra_of_asc_node": 243.7276,
        "meta_arg_of_pericenter": 183.5453,
        "meta_mean_anomaly": 353.8193,
        "meta_ephemeris_type": 0,
        "meta_classification_type": "U",
        "meta_norad_cat_id": 39635,
        "meta_element_set_no": 999,
        "meta_rev_at_epoch": 4284,
        "meta_bstar": 0,
        "meta_mean_motion_dot": 1.26e-06,
        "meta_mean_motion_ddot": 0,
        "tle_line1": "1 39635U 14017A   25338.81155667  .00000126  00000+0  00000+0 0  9996",
        "tle_line2": "2 39635  28.8387 243.7276 0017633 183.5453 353.8193  1.00275997 42844"
      },
      "geometry": {
        "type": "Point",
        "coordinates": [
          -61.0577023006087,
          24.350848672876644
        ]
      }
    },
    {
      "type": "Feature",
      "properties": {
        "norad_id": 39727,
        "name": "LUCH 5V (SDCM/PRN 141)",
        "group": "gnss",
        "lat": -4.6531581146345555,
        "lon": -17.60927052632199,
        "alt_km": 35780.26427041647,
        "timestamp": "2025-12-06T11:28:11.305816+00:00",
        "meta_object_name": "LUCH 5V (SDCM/PRN 141)",
        "meta_object_id": "2014-023A",
        "meta_epoch": "2025-12-05T19:17:03.874848",
        "meta_mean_motion": 1.00271041,
        "meta_eccentricity": 0.0004595,
        "meta_inclination": 4.6511,
        "meta_ra_of_asc_node": 71.5979,
        "meta_arg_of_pericenter": 201.0776,
        "meta_mean_anomaly": 186.2233,
        "meta_ephemeris_type": 0,
        "meta_classification_type": "U",
        "meta_norad_cat_id": 39727,
        "meta_element_set_no": 999,
        "meta_rev_at_epoch": 4242,
        "meta_bstar": 0,
        "meta_mean_motion_dot": -2.62e-06,
        "meta_mean_motion_ddot": 0,
        "tle_line1": "1 39727U 14023A   25339.80351707 -.00000262  00000+0  00000+0 0  9990",
        "tle_line2": "2 39727   4.6511  71.5979 0004595 201.0776 186.2233  1.00271041 42424"
      },
      "geometry": {
        "type": "Point",
        "coordinates": [
          -17.60927052632199,
          -4.6531581146345555
        ]
      }
    },
    {
      "type": "Feature",
      "properties": {
        "norad_id": 39741,
        "name": "GPS BIIF-6  (PRN 06)",
        "group": "gnss",
        "lat": -19.764360659204094,
        "lon": -34.70741806829902,
        "alt_km": 20086.628149381137,
        "timestamp": "2025-12-06T11:28:11.305827+00:00",
        "meta_object_name": "GPS BIIF-6  (PRN 06)",
        "meta_object_id": "2014-026A",
        "meta_epoch": "2025-12-05T12:19:36.956352",
        "meta_mean_motion": 2.00561711,
        "meta_eccentricity": 0.00389807,
        "meta_inclination": 56.5863,
        "meta_ra_of_asc_node": 339.0576,
        "meta_arg_of_pericenter": 318.2781,
        "meta_mean_anomaly": 41.4416,
        "meta_ephemeris_type": 0,
        "meta_classification_type": "U",
        "meta_norad_cat_id": 39741,
        "meta_element_set_no": 999,
        "meta_rev_at_epoch": 8465,
        "meta_bstar": 0,
        "meta_mean_motion_dot": -7.5e-07,
        "meta_mean_motion_ddot": 0,
        "tle_line1": "1 39741U 14026A   25339.51362218 -.00000075  00000+0  00000+0 0  9998",
        "tle_line2": "2 39741  56.5863 339.0576 0038980 318.2781  41.4416  2.00561711 84656"
      },
      "geometry": {
        "type": "Point",
        "coordinates": [
          -34.70741806829902,
          -19.764360659204094
        ]
      }
    },
    {
      "type": "Feature",
      "properties": {
        "norad_id": 40001,
        "name": "COSMOS 2500 (755)",
        "group": "gnss",
        "lat": -45.745817018963734,
        "lon": 168.35456532080715,
        "alt_km": 19114.512150162947,
        "timestamp": "2025-12-06T11:28:11.305839+00:00",
        "meta_object_name": "COSMOS 2500 (755)",
        "meta_object_id": "2014-032A",
        "meta_epoch": "2025-12-04T07:09:49.504896",
        "meta_mean_motion": 2.13106037,
        "meta_eccentricity": 0.0008267,
        "meta_inclination": 65.3482,
        "meta_ra_of_asc_node": 320.3199,
        "meta_arg_of_pericenter": 219.122,
        "meta_mean_anomaly": 140.8171,
        "meta_ephemeris_type": 0,
        "meta_classification_type": "U",
        "meta_norad_cat_id": 40001,
        "meta_element_set_no": 999,
        "meta_rev_at_epoch": 8930,
        "meta_bstar": 0,
        "meta_mean_motion_dot": -4.5e-07,
        "meta_mean_motion_ddot": 0,
        "tle_line1": "1 40001U 14032A   25338.29848964 -.00000045  00000+0  00000+0 0  9994",
        "tle_line2": "2 40001  65.3482 320.3199 0008267 219.1220 140.8171  2.13106037 89307"
      },
      "geometry": {
        "type": "Point",
        "coordinates": [
          168.35456532080715,
          -45.745817018963734
        ]
      }
    },
    {
      "type": "Feature",
      "properties": {
        "norad_id": 40105,
        "name": "GPS BIIF-7  (PRN 09)",
        "group": "gnss",
        "lat": -55.10220207915169,
        "lon": 11.906282784213523,
        "alt_km": 20265.468642053595,
        "timestamp": "2025-12-06T11:28:11.305850+00:00",
        "meta_object_name": "GPS BIIF-7  (PRN 09)",
        "meta_object_id": "2014-045A",
        "meta_epoch": "2025-12-05T14:26:16.975968",
        "meta_mean_motion": 2.00571979,
        "meta_eccentricity": 0.00328896,
        "meta_inclination": 55.2248,
        "meta_ra_of_asc_node": 96.1837,
        "meta_arg_of_pericenter": 119.6741,
        "meta_mean_anomaly": 240.6258,
        "meta_ephemeris_type": 0,
        "meta_classification_type": "U",
        "meta_norad_cat_id": 40105,
        "meta_element_set_no": 999,
        "meta_rev_at_epoch": 8219,
        "meta_bstar": 0,
        "meta_mean_motion_dot": -1.2e-07,
        "meta_mean_motion_ddot": 0,
        "tle_line1": "1 40105U 14045A   25339.60158537 -.00000012  00000+0  00000+0 0  9993",
        "tle_line2": "2 40105  55.2248  96.1837 0032889 119.6741 240.6258  2.00571979 82198"
      },
      "geometry": {
        "type": "Point",
        "coordinates": [
          11.906282784213523,
          -55.10220207915169
        ]
      }
    }
  ]
}